url_address,address,chain,contract,isUserAddress,arkhamEntity_name,arkhamEntity_type,arkhamEntity_website,arkhamLabel_name,arkhamLabel_chainType,inUSD,outUSD,inValue,outValue,fecha_extraccion,token_name
https://intel.arkm.com/explorer/address/bc1qm9vv9nuwfevdyrdqve7kd3nlkfrxp9zpvr4r2u,bc1qm9vv9nuwfevdyrdqve7kd3nlkfrxp9zpvr4r2u,bitcoin,,False,B2C2 Group,fund,https://www.b2c2.com,,,0.0,641562594.6366081,0.0,7124.08780002,2025-12-15 19:03:43,bitcoin
https://intel.arkm.com/explorer/address/3ASRYwKgNjQKD59KoDyq9smSviufTowFRM,3ASRYwKgNjQKD59KoDyq9smSviufTowFRM,bitcoin,,False,Bitwise,fund,https://bitwiseinvestments.com/,Physical Bitcoin ETP,bitcoin,0.0,578894272.0,0.0,6991.47672956,2025-12-15 19:03:43,bitcoin
https://intel.arkm.com/explorer/address/38rFtDdFpXc4y6XPbSnNd2UvveEt5Xms2E,38rFtDdFpXc4y6XPbSnNd2UvveEt5Xms2E,bitcoin,,False,Twenty One Capital,fund,https://xxi.money/,,,1467052160.0,0.0,16116.31574065,0.0,2025-12-15 19:03:43,bitcoin
https://intel.arkm.com/explorer/address/bc1q39u0yxprsz6ucq93pgtxksk7ncr4900ypvkwcw,bc1q39u0yxprsz6ucq93pgtxksk7ncr4900ypvkwcw,bitcoin,,False,BIT.com (Matrixport),cex,https://www.bit.com/,,,765832302.015625,632932996.8371029,8429.782958529999,6903.680490199999,2025-12-15 19:03:43,bitcoin
https://intel.arkm.com/explorer/address/bc1qukw69mjxwp30adfqddv6gcyva26laxz562rhlk,bc1qukw69mjxwp30adfqddv6gcyva26laxz562rhlk,bitcoin,,False,Kraken,cex,https://kraken.com,Cold Wallet,bitcoin,914080000.0,0.0,10000.0,0.0,2025-12-15 19:03:43,bitcoin
https://intel.arkm.com/explorer/address/bc1qjcm02r55a90v88xwe4alew4y4uyft2htvnywv2,bc1qjcm02r55a90v88xwe4alew4y4uyft2htvnywv2,bitcoin,,False,Robinhood,cex,https://robinhood.com/,,,820513502.6708517,569798636.5078125,9078.357100090001,6342.064976940001,2025-12-15 19:03:43,bitcoin
https://intel.arkm.com/explorer/address/1NBYWqtQvWmT7hzEB11XyGjHp4G177AVgz,1NBYWqtQvWmT7hzEB11XyGjHp4G177AVgz,bitcoin,,False,BIT.com (Matrixport),cex,https://www.bit.com/,,,563440852.5473938,652387879.3671188,6186.75004507,7147.88612868,2025-12-15 19:03:43,bitcoin
https://intel.arkm.com/explorer/address/3JZ3byZy7TTrfy8zdxrm9iqJrdsaZ5CrNw,3JZ3byZy7TTrfy8zdxrm9iqJrdsaZ5CrNw,bitcoin,,False,Crypto.com,cex,https://crypto.com,,,640758651.5882874,749153849.9405518,7181.889279999999,8338.58117,2025-12-15 19:03:43,bitcoin
https://intel.arkm.com/explorer/address/bc1q32lyrhp9zpww22phqjwwmelta0c8a5q990ghs6,bc1q32lyrhp9zpww22phqjwwmelta0c8a5q990ghs6,bitcoin,,False,Ceffu,custodian,https://www.ceffu.com/,Custody Cold Wallet,bitcoin,587197096.0,813936864.0,6419.838,9232.00002382,2025-12-15 19:03:43,bitcoin
https://intel.arkm.com/explorer/address/bc1q4uccuzje5y77tajhgguzj3dut0rjkkq6thym8u2xvqhqn4zykrlsfsyhvl,bc1q4uccuzje5y77tajhgguzj3dut0rjkkq6thym8u2xvqhqn4zykrlsfsyhvl,bitcoin,,False,Twenty One Capital,fund,https://xxi.money/,,,0.0,639912000.0,0.0,7000.00000777,2025-12-15 19:03:43,bitcoin
https://intel.arkm.com/explorer/address/bc1q9exg34dkmgxu28yektgn929jpjpzukhhl2r3zr,bc1q9exg34dkmgxu28yektgn929jpjpzukhhl2r3zr,bitcoin,,False,Wintermute,fund,https://www.wintermute.com/,Hot Wallet,bitcoin,2751807806.2821436,2729875860.850542,30572.34291019,30337.53642691,2025-12-15 19:03:43,bitcoin
https://intel.arkm.com/explorer/address/bc1qttmz4kvr8tr6alvmn3zpd5mg53e787rq8v06z0qyqrru4992hsmqxnzkyl,bc1qttmz4kvr8tr6alvmn3zpd5mg53e787rq8v06z0qyqrru4992hsmqxnzkyl,bitcoin,,False,,,,,,926631828.0681763,0.0,10113.6389,0.0,2025-12-15 19:03:43,bitcoin
https://intel.arkm.com/explorer/address/1Pzaqw98PeRfyHypfqyEgg5yycJRsENrE7,1Pzaqw98PeRfyHypfqyEgg5yycJRsENrE7,bitcoin,,False,Binance,cex,https://binance.com,Cold Wallet,bitcoin,0.0,832150016.0,0.0,9000.0000896,2025-12-15 19:03:43,bitcoin
https://intel.arkm.com/explorer/address/172jzPTGhtRR2SafHQDz3f7CTFrM4bjrxb,172jzPTGhtRR2SafHQDz3f7CTFrM4bjrxb,bitcoin,,False,,,,,,0.0,680275008.0,0.0,7659.20237716,2025-12-15 19:03:43,bitcoin
https://intel.arkm.com/explorer/address/1PHpKcFBaUcNadBKEWutz3uMTWKupe8QHq,1PHpKcFBaUcNadBKEWutz3uMTWKupe8QHq,bitcoin,,False,,,,,,680212864.0,0.0,7658.50237493,0.0,2025-12-15 19:03:43,bitcoin
https://intel.arkm.com/explorer/address/12DezRFkKToAiLTDNru1g7FuvtAWMwCZ7N,12DezRFkKToAiLTDNru1g7FuvtAWMwCZ7N,bitcoin,,False,Coinbase,cex,https://coinbase.com,Cold Wallet,bitcoin,4247347463.5896482,4240415205.953125,47481.78426367,47445.68078553,2025-12-15 19:03:43,bitcoin
https://intel.arkm.com/explorer/address/36YZXcTVLPdyapYuqXdJEt46oMVB2NrzVv,36YZXcTVLPdyapYuqXdJEt46oMVB2NrzVv,bitcoin,,False,,,,Coinbase Prime Deposit,bitcoin,3326109009.0,3314205177.0,37109.99383141,36988.17588537,2025-12-15 19:03:43,bitcoin
https://intel.arkm.com/explorer/address/bc1qr4dl5wa7kl8yu792dceg9z5knl2gkn220lk7a9,bc1qr4dl5wa7kl8yu792dceg9z5knl2gkn220lk7a9,bitcoin,,False,Crypto.com,cex,https://crypto.com,Cold Wallet,bitcoin,1647015231.0614822,1977542075.6906738,18363.26871276,22115.418231609998,2025-12-15 19:03:43,bitcoin
https://intel.arkm.com/explorer/address/bc1qppunwskzl7t3mtmcarlvpxjuzd8jy7l7ga49av2c78xg47fujncsrc76y6,bc1qppunwskzl7t3mtmcarlvpxjuzd8jy7l7ga49av2c78xg47fujncsrc76y6,bitcoin,,False,Bitstamp,cex,https://bitstamp.net,Cold Wallet,bitcoin,1598277537.1651382,1733309932.9322205,17796.62258957,19235.41850678,2025-12-15 19:03:43,bitcoin
https://intel.arkm.com/explorer/address/bc1quq29mutxkgxmjfdr7ayj3zd9ad0ld5mrhh89l2,bc1quq29mutxkgxmjfdr7ayj3zd9ad0ld5mrhh89l2,bitcoin,,False,Gemini,cex,https://gemini.com,Hot Wallet,bitcoin,1105118936.8696642,1050201390.6274288,12620.48254319,11950.39210974,2025-12-15 19:03:43,bitcoin
https://intel.arkm.com/explorer/address/1AZ7aYCT6JPLF1EZ7PgymfFtH4xK44CcCP,1AZ7aYCT6JPLF1EZ7PgymfFtH4xK44CcCP,bitcoin,,False,,,,Binance Deposit,bitcoin,769291467.281634,797217860.2812341,8693.69071556,8990.728533919999,2025-12-15 19:03:43,bitcoin
https://intel.arkm.com/explorer/address/bc1qm34lsc65zpw79lxes69zkqmk6ee3ewf0j77s3h,bc1qm34lsc65zpw79lxes69zkqmk6ee3ewf0j77s3h,bitcoin,,False,Binance,cex,https://binance.com,Hot Wallet,bitcoin,20785156885.445328,21137694388.60879,231537.50961248,235047.73197701,2025-12-15 19:03:43,bitcoin
https://intel.arkm.com/explorer/address/bc1qx9n80t5q7tfmutzaj0ramzzzsvtveara68zntc,bc1qx9n80t5q7tfmutzaj0ramzzzsvtveara68zntc,bitcoin,,False,Kraken,cex,https://kraken.com,Hot Wallet,bitcoin,5140817675.6149435,5506147332.493248,57239.68302671,61190.77410838,2025-12-15 19:03:43,bitcoin
https://intel.arkm.com/explorer/address/1KbDEg1tDz2ErYgaDbaDhhawnLrSQFaFx5,1KbDEg1tDz2ErYgaDbaDhhawnLrSQFaFx5,bitcoin,,False,Wintermute,fund,https://www.wintermute.com/,Binance Deposit,bitcoin,4948509916.288764,4918817825.251506,55081.49236916,54794.15259258,2025-12-15 19:03:43,bitcoin
https://intel.arkm.com/explorer/address/1ANkDML9LtVv1E1EF7cwPFEkSv6Bpojwyt,1ANkDML9LtVv1E1EF7cwPFEkSv6Bpojwyt,bitcoin,,False,Mt. Gox,cex,https://www.mtgox.com,Cold Wallet,bitcoin,936985472.0,0.0,10422.64637106,0.0,2025-12-15 19:03:43,bitcoin
https://intel.arkm.com/explorer/address/12XZMdaAGmcHf4ocFSqpd8jFd1WH7RHUPs,12XZMdaAGmcHf4ocFSqpd8jFd1WH7RHUPs,bitcoin,,False,Bybit,cex,https://bybit.com,Hot Wallet,bitcoin,2220521884.57848,2253449482.681282,24535.84716482,24897.698363890002,2025-12-15 19:03:43,bitcoin
https://intel.arkm.com/explorer/address/bc1qq393eyjh8hdjvcchy0mxquhh9wx8h3kzlkchfs,bc1qq393eyjh8hdjvcchy0mxquhh9wx8h3kzlkchfs,bitcoin,,False,Ceffu,custodian,https://www.ceffu.com/,Custody Hot Wallet,bitcoin,1282481122.2340088,1344401232.3183928,14294.97268443,14996.897237289999,2025-12-15 19:03:43,bitcoin
https://intel.arkm.com/explorer/address/3JBM969wvpxEnfYLQ3LYayB3DVk52ZZpGq,3JBM969wvpxEnfYLQ3LYayB3DVk52ZZpGq,bitcoin,,False,,,,,,927671744.0,888877632.0,10144.92,10144.92,2025-12-15 19:03:43,bitcoin
https://intel.arkm.com/explorer/address/bc1qn2cpj0hrl37wqh5q94kwrlhtj2lx8ahtw7ef5rg35tswxsqtvufqfmmrq2,bc1qn2cpj0hrl37wqh5q94kwrlhtj2lx8ahtw7ef5rg35tswxsqtvufqfmmrq2,bitcoin,,False,OKX,cex,https://okx.com,Hot Wallet,bitcoin,1745867793.7988853,1806176233.3630905,19360.40600213,20016.20524265,2025-12-15 19:03:43,bitcoin
https://intel.arkm.com/explorer/address/3EX1HHEwPtkxitrcYpymHFWu91LNsn8wD4,3EX1HHEwPtkxitrcYpymHFWu91LNsn8wD4,bitcoin,,False,,,,,,916939008.0,0.0,10051.07,0.0,2025-12-15 19:03:43,bitcoin
https://intel.arkm.com/explorer/address/3MgEAFWu1HKSnZ5ZsC8qf61ZW18xrP5pgd,3MgEAFWu1HKSnZ5ZsC8qf61ZW18xrP5pgd,bitcoin,,False,Gemini,cex,https://gemini.com,Cold Wallet,bitcoin,621166618.4915583,0.0,7113.0000054600005,0.0,2025-12-15 19:03:43,bitcoin
https://intel.arkm.com/explorer/address/15DomY3arDPw5jD658Mbf3AY3wT3YCDmW2,15DomY3arDPw5jD658Mbf3AY3wT3YCDmW2,bitcoin,,False,Wintermute,fund,https://www.wintermute.com/,Hot Wallet,bitcoin,4626695882.610481,4622840525.421875,51107.82175178,51103.82175178,2025-12-15 19:03:43,bitcoin
https://intel.arkm.com/explorer/address/3MEa4sPyGLCf2xQR5k68gUsxYSosJ6UhJh,3MEa4sPyGLCf2xQR5k68gUsxYSosJ6UhJh,bitcoin,,False,Twenty One Capital,fund,https://xxi.money/,,,3933954304.0,3911275520.0,43033.5411757,43033.5411757,2025-12-15 19:03:43,bitcoin
https://intel.arkm.com/explorer/address/bc1quhruqrghgcca950rvhtrg7cpd7u8k6svpzgzmrjy8xyukacl5lkq0r8l2d,bc1quhruqrghgcca950rvhtrg7cpd7u8k6svpzgzmrjy8xyukacl5lkq0r8l2d,bitcoin,,False,OKX,cex,https://okx.com,Hot Wallet,bitcoin,3266104497.2740006,3299246203.799293,36224.05688612,36709.10637519,2025-12-15 19:03:43,bitcoin
https://intel.arkm.com/explorer/address/1GrwDkr33gT6LuumniYjKEGjTLhsL5kmqC,1GrwDkr33gT6LuumniYjKEGjTLhsL5kmqC,bitcoin,,False,Bybit,cex,https://bybit.com,Hot Wallet,bitcoin,2474006989.9172635,2537815691.466919,27297.88524027,28019.73083293,2025-12-15 19:03:43,bitcoin
https://intel.arkm.com/explorer/address/335umQ4egqMjDo6wSXYwQZYPntZzMveNTJ,335umQ4egqMjDo6wSXYwQZYPntZzMveNTJ,bitcoin,,False,Coinbase,cex,https://coinbase.com,,,1892916721.875,1893537717.65625,21482.323375,21482.323375,2025-12-15 19:03:43,bitcoin
https://intel.arkm.com/explorer/address/bc1q0d3k8zue8z5ztqt0r35rsd7gua5z4ser6gt46c,bc1q0d3k8zue8z5ztqt0r35rsd7gua5z4ser6gt46c,bitcoin,,False,Coinbase,cex,https://coinbase.com,Cold Wallet,bitcoin,1400765963.6230187,1653212186.182644,15689.04349534,18491.93614181,2025-12-15 19:03:43,bitcoin
https://intel.arkm.com/explorer/address/bc1q8qpfmpf6hcu3tgfvp8dgtf534rws8uhsl9vtk6p2f3r2gnqdz5sqxmty6q,bc1q8qpfmpf6hcu3tgfvp8dgtf534rws8uhsl9vtk6p2f3r2gnqdz5sqxmty6q,bitcoin,,False,Twenty One Capital,fund,https://xxi.money/,,,0.0,1684128000.0,0.0,18422.68366374,2025-12-15 19:03:43,bitcoin
https://intel.arkm.com/explorer/address/38UmuUqPCrFmQo4khkomQwZ4VbY2nZMJ67,38UmuUqPCrFmQo4khkomQwZ4VbY2nZMJ67,bitcoin,,False,Gemini,cex,https://gemini.com,Cold Wallet,bitcoin,0.0,783071248.0,0.0,9040.021983999999,2025-12-15 19:03:43,bitcoin
https://intel.arkm.com/explorer/address/bc1qumvs45e69rvfd9vqknzyz9wg0xzvnhmx6mt3cc,bc1qumvs45e69rvfd9vqknzyz9wg0xzvnhmx6mt3cc,bitcoin,,False,Kraken,cex,https://kraken.com,Cold Wallet,bitcoin,0.0,594554432.0,0.0,6600.00001074,2025-12-15 19:03:43,bitcoin
https://intel.arkm.com/explorer/address/1DLeNApsHNNzUMNZJVoXeyEY5sdp8vzx3w,1DLeNApsHNNzUMNZJVoXeyEY5sdp8vzx3w,bitcoin,,False,Bybit,cex,https://bybit.com,Hot Wallet,bitcoin,2261526764.343152,2288675045.1842327,24955.25231833,25286.36730814,2025-12-15 19:03:43,bitcoin
https://intel.arkm.com/explorer/address/bc1q8s3h3vw5xufdas890q29lpuca56r0ezqar0mvs,bc1q8s3h3vw5xufdas890q29lpuca56r0ezqar0mvs,bitcoin,,False,Cumberland DRW,fund,https://cumberland.io,,,1037988138.3537521,1047119692.9976013,11583.46336086,11694.56236508,2025-12-15 19:03:43,bitcoin
https://intel.arkm.com/explorer/address/3M219KR5vEneNb47ewrPfWyb5jQ2DjxRP6,3M219KR5vEneNb47ewrPfWyb5jQ2DjxRP6,bitcoin,,False,Binance,cex,https://binance.com,Cold Wallet,bitcoin,833114112.0,0.0,8927.976,0.0,2025-12-15 19:03:43,bitcoin
https://intel.arkm.com/explorer/address/3EDiYUZpcEjBvaD7yiZfjx68hhXH6bYyZy,3EDiYUZpcEjBvaD7yiZfjx68hhXH6bYyZy,bitcoin,,False,Bitstamp,cex,https://bitstamp.net,,,593343964.9375,706495543.75,6582.299016,7876.65897665,2025-12-15 19:03:43,bitcoin
https://intel.arkm.com/explorer/address/32o7DBUDc2RSJmg9T37wGrxP1NxsBgmtEG,32o7DBUDc2RSJmg9T37wGrxP1NxsBgmtEG,bitcoin,,False,Bitwise,fund,https://bitwiseinvestments.com/,Physical Bitcoin ETP,bitcoin,559686784.0,0.0,6759.50245992,0.0,2025-12-15 19:03:43,bitcoin
https://intel.arkm.com/explorer/address/bc1qk4m9zv5tnxf2pddd565wugsjrkqkfn90aa0wypj2530f4f7tjwrqntpens,bc1qk4m9zv5tnxf2pddd565wugsjrkqkfn90aa0wypj2530f4f7tjwrqntpens,bitcoin,,False,BitMEX,cex,https://bitmex.com,Cold Wallet,bitcoin,0.0,2989155526.1950073,0.0,32703.261100000003,2025-12-15 19:03:43,bitcoin
https://intel.arkm.com/explorer/address/bc1qpzt4m58zzqgp84ktyuj5tz8g8k8ssg2g2d5eeerwhx4gxulqq5mqjzm5gc,bc1qpzt4m58zzqgp84ktyuj5tz8g8k8ssg2g2d5eeerwhx4gxulqq5mqjzm5gc,bitcoin,,False,Twenty One Capital,fund,https://xxi.money/,,,0.0,959867968.0,0.0,10499.99999582,2025-12-15 19:03:43,bitcoin
https://intel.arkm.com/explorer/address/1DcoAJJmCexsYCF8h9qBzduNDo2cXAWXFe,1DcoAJJmCexsYCF8h9qBzduNDo2cXAWXFe,bitcoin,,False,Mt. Gox,cex,https://www.mtgox.com,Cold Wallet,bitcoin,0.0,953663616.0,0.0,10608.16686533,2025-12-15 19:03:43,bitcoin
https://intel.arkm.com/explorer/address/3MqUP6G1daVS5YTD8fz3QgwjZortWwxXFd,3MqUP6G1daVS5YTD8fz3QgwjZortWwxXFd,bitcoin,,False,Coinbase Prime,cex,https://www.coinbase.com/prime,Hot Wallet,bitcoin,15163666415.80331,15139641499.312408,169253.15378289,169063.03811994,2025-12-15 19:03:43,bitcoin
https://intel.arkm.com/explorer/address/bc1qactqjuk4kghfgaqqt454hzzzs5lsaysunf80gh,bc1qactqjuk4kghfgaqqt454hzzzs5lsaysunf80gh,bitcoin,,False,,,,,,1981036267.048462,1981017543.1084595,21834.55693024,21834.55693024,2025-12-15 19:03:43,bitcoin
https://intel.arkm.com/explorer/address/3P4Fjuyn8SMeMV3SVCLUw88zhTk38aqCB8,3P4Fjuyn8SMeMV3SVCLUw88zhTk38aqCB8,bitcoin,,False,,,,,,888877632.0,0.0,10144.91999566,0.0,2025-12-15 19:03:43,bitcoin
https://intel.arkm.com/explorer/address/324H9uyTV9bPgAVgmdJNxPKKKZmowk5CYq,324H9uyTV9bPgAVgmdJNxPKKKZmowk5CYq,bitcoin,,False,Bullish.com,cex,https://bullish.com/,Hot Wallet,bitcoin,601751026.25,685014211.8372517,6740.295121560001,7638.23114945,2025-12-15 19:03:43,bitcoin
https://intel.arkm.com/explorer/address/bc1pueepze0zflc9vhtmt2tjhnp8d73f2lmle27wxvk6z6crh73ju9nsjw0qkx,bc1pueepze0zflc9vhtmt2tjhnp8d73f2lmle27wxvk6z6crh73ju9nsjw0qkx,bitcoin,,False,,,,,,594554368.5109695,601296192.0,6600.00000557,6505.00001542,2025-12-15 19:03:43,bitcoin
https://intel.arkm.com/explorer/address/bc1p79rzpjn2f0puzc5lr5vxvrh23eytnqgcfhw4pcjj8gkep2slp2es92e2zp,bc1p79rzpjn2f0puzc5lr5vxvrh23eytnqgcfhw4pcjj8gkep2slp2es92e2zp,bitcoin,,False,,,,,,601296192.0,0.0,6505.0,0.0,2025-12-15 19:03:43,bitcoin
https://intel.arkm.com/explorer/address/3HNFTegz1nSDjoq8iepW5wMxDZCcVq1VuC,3HNFTegz1nSDjoq8iepW5wMxDZCcVq1VuC,bitcoin,,False,Twenty One Capital,fund,https://xxi.money/,,,3911275520.0,3917300224.0,43033.54017238,43033.54017238,2025-12-15 19:03:43,bitcoin
https://intel.arkm.com/explorer/address/bc1q7cyrfmck2ffu2ud3rn5l5a8yv6f0chkp0zpemf,bc1q7cyrfmck2ffu2ud3rn5l5a8yv6f0chkp0zpemf,bitcoin,,False,Crypto.com,cex,https://crypto.com,Hot Wallet,bitcoin,1767349975.1894412,1874054440.6213942,19831.05245794,20960.74466029,2025-12-15 19:03:43,bitcoin
https://intel.arkm.com/explorer/address/bc1q42kvqt0e3f27qhd2ucnprarl5ywpuj7tu0h9v2,bc1q42kvqt0e3f27qhd2ucnprarl5ywpuj7tu0h9v2,bitcoin,,False,FalconX,cex,https://falconx.io/,Hot Wallet,bitcoin,557403591.2765665,656573128.3001755,6163.32438307,7384.53913707,2025-12-15 19:03:43,bitcoin
https://intel.arkm.com/explorer/address/352zzNHvsBTaUUNzqB5xbMo8EYdpvHJQB2,352zzNHvsBTaUUNzqB5xbMo8EYdpvHJQB2,bitcoin,,False,Coinbase,cex,https://coinbase.com,,,1981009379.875061,1977155867.094223,21834.46539791,21794.45687155,2025-12-15 19:03:43,bitcoin
https://intel.arkm.com/explorer/address/37GgrfZcywSLuBpQDf1t6aJicWzHRf2GFB,37GgrfZcywSLuBpQDf1t6aJicWzHRf2GFB,bitcoin,,False,,,,,,2450247936.0,0.0,26917.22442797,0.0,2025-12-15 19:03:43,bitcoin
https://intel.arkm.com/explorer/address/1Kr6QSydW9bFQG1mXiPNNu6WpJGmUa9i1g,1Kr6QSydW9bFQG1mXiPNNu6WpJGmUa9i1g,bitcoin,,False,Bitfinex,cex,https://bitfinex.com,Hot Wallet,bitcoin,1481232439.3134687,993459762.7417998,16485.19010884,11104.56469621,2025-12-15 19:03:43,bitcoin
https://intel.arkm.com/explorer/address/3BPAodH6WkNQC8TUrnwFKhETiFacNUi68X,3BPAodH6WkNQC8TUrnwFKhETiFacNUi68X,bitcoin,,False,Cobo.com,custodian,https://www.cobo.com,Cobo Custody,bitcoin,764445358.0,792660567.0,8663.52529999,9067.36849999,2025-12-15 19:03:43,bitcoin
https://intel.arkm.com/explorer/address/3BHXygmhNMaCcNn76S8DLdnZ5ucPtNtWGb,3BHXygmhNMaCcNn76S8DLdnZ5ucPtNtWGb,bitcoin,,False,Cobo.com,custodian,https://www.cobo.com,Hot Wallet,bitcoin,0.0,765564768.0,0.0,8678.25574751,2025-12-15 19:03:43,bitcoin
https://intel.arkm.com/explorer/address/0xC02aaA39b223FE8D0A0e5C4F27eAD9083C756Cc2,0xC02aaA39b223FE8D0A0e5C4F27eAD9083C756Cc2,ethereum,True,False,,,,Wrapped Ether (WETH),evm,23061762656.872665,22836808149.652428,7673558.255882802,7575726.233555805,2025-12-15 19:04:01,ethereum
https://intel.arkm.com/explorer/address/0x4200000000000000000000000000000000000006,0x4200000000000000000000000000000000000006,ethereum,False,False,,,,,,5344561226.291479,5329832965.011936,1756011.0461894243,1752280.2809944178,2025-12-15 19:04:01,ethereum
https://intel.arkm.com/explorer/address/0xceB69F6342eCE283b2F5c9088Ff249B5d0Ae66ea,0xceB69F6342eCE283b2F5c9088Ff249B5d0Ae66ea,ethereum,False,False,Coinbase Prime,cex,https://www.coinbase.com/prime,Hot Wallet,evm,3263631508.3042555,3259015107.9946823,1067373.9473359045,1068131.293651267,2025-12-15 19:04:01,ethereum
https://intel.arkm.com/explorer/address/0xA9Ac43f5b5e38155A288d1A01D2cbc4478E14573,0xA9Ac43f5b5e38155A288d1A01D2cbc4478E14573,ethereum,False,False,OKX,cex,https://okx.com,Hot Wallet,evm,3078249396.668605,3101625262.4865713,1004154.0094100065,1011032.6366735101,2025-12-15 19:04:01,ethereum
https://intel.arkm.com/explorer/address/0x82aF49447D8a07e3bd95BD0d56f35241523fBab1,0x82aF49447D8a07e3bd95BD0d56f35241523fBab1,ethereum,False,False,,,,,,2313562047.8874826,2296689272.1170883,767869.9380467872,759917.7146404027,2025-12-15 19:04:01,ethereum
https://intel.arkm.com/explorer/address/0x63242A4Ea82847b20E506b63B0e2e2eFF0CC6cB0,0x63242A4Ea82847b20E506b63B0e2e2eFF0CC6cB0,ethereum,True,False,Kyber Network,dex,https://kyber.network,Aggregator Executor V3,evm,1817482232.2924352,1817535732.5833955,601205.2177201777,601222.8778677188,2025-12-15 19:04:01,ethereum
https://intel.arkm.com/explorer/address/0x1346B4d6867a382B02b19A8D131D9b96b18585f2,0x1346B4d6867a382B02b19A8D131D9b96b18585f2,ethereum,True,False,,,,StabilizerNFT (Proxy),evm,1502844456.7776272,1530916786.4825556,494636.80573101697,503903.14255601494,2025-12-15 19:04:01,ethereum
https://intel.arkm.com/explorer/address/0xC8c557506a5240dcEC094e614C665Ff9CA815b95,0xC8c557506a5240dcEC094e614C665Ff9CA815b95,ethereum,False,False,,,,Coinbase Prime Deposit,evm,977912242.0,974061609.0,323724.92955485,322595.4921871128,2025-12-15 19:04:01,ethereum
https://intel.arkm.com/explorer/address/0x111111125421cA6dc452d289314280a0f8842A65,0x111111125421cA6dc452d289314280a0f8842A65,ethereum,True,False,1inch,dex-aggregator,https://1inch.io,AggregationRouterV6,evm,836246945.2584057,836817081.3253312,280233.8048949455,280418.88196461677,2025-12-15 19:04:01,ethereum
https://intel.arkm.com/explorer/address/0xDFd5293D8e347dFe59E90eFd55b2956a1343963d,0xDFd5293D8e347dFe59E90eFd55b2956a1343963d,ethereum,False,False,Binance,cex,https://binance.com,Hot Wallet,evm,1870134655.9595516,1880706558.2262084,623305.2107542579,625006.70046914,2025-12-15 19:04:01,ethereum
https://intel.arkm.com/explorer/address/0x1f2F10D1C40777AE1Da742455c65828FF36Df387,0x1f2F10D1C40777AE1Da742455c65828FF36Df387,ethereum,True,False,jaredfromsubway (MEV),mev,,MEV Bot,evm,1734005122.9867961,1734005255.5351243,572774.5306024498,572774.5746147499,2025-12-15 19:04:01,ethereum
https://intel.arkm.com/explorer/address/0xaF682DE1f2e6f710731121A05A44Cb3C1B511f7d,0xaF682DE1f2e6f710731121A05A44Cb3C1B511f7d,ethereum,True,False,,,,,,1326311498.7888036,1338716319.8766606,415617.95182227803,419368.55080185103,2025-12-15 19:04:01,ethereum
https://intel.arkm.com/explorer/address/0xBD7D6a9ad7865463DE44B05F04559f65e3B11704,0xBD7D6a9ad7865463DE44B05F04559f65e3B11704,ethereum,True,False,Spark,lending-decentralized,https://spark.fi/,WrappedTokenGatewayV3,evm,0.0,726199558.5856898,0.0,243561.7617485248,2025-12-15 19:04:01,ethereum
https://intel.arkm.com/explorer/address/0xE69f81b825d7Dc31ee9becef4DbEab5cf30e3Abb,0xE69f81b825d7Dc31ee9becef4DbEab5cf30e3Abb,ethereum,False,False,Binance,cex,https://binance.com,Internal,evm,1611124546.8842268,1583415291.4963963,532230.3017159215,523180.314195,2025-12-15 19:04:01,ethereum
https://intel.arkm.com/explorer/address/0xE7158af48573c6A9d24a53Fa4ADB62DE77EA65eC,0xE7158af48573c6A9d24a53Fa4ADB62DE77EA65eC,ethereum,True,False,,,,MEV Bot,evm,979363688.0000091,979363542.0914847,325159.09706763434,325159.04944315105,2025-12-15 19:04:01,ethereum
https://intel.arkm.com/explorer/address/0xd01607c3C5eCABa394D8be377a08590149325722,0xd01607c3C5eCABa394D8be377a08590149325722,ethereum,True,False,Aave,lending-decentralized,https://aave.com,WrappedTokenGatewayV3,evm,5369900768.137288,5369900768.330611,1795411.9772786992,1795411.9772786992,2025-12-15 19:04:01,ethereum
https://intel.arkm.com/explorer/address/0x00000000219ab540356cBB839Cbe05303d7705Fa,0x00000000219ab540356cBB839Cbe05303d7705Fa,ethereum,True,False,,,,Eth2 Beacon Deposit Contract,evm,3320303792.053955,0.0,1087350.141694891,0.0,2025-12-15 19:04:01,ethereum
https://intel.arkm.com/explorer/address/0x476ef9ac6D8673E220d0E8BC0a810C2Dc6A2AA84,0x476ef9ac6D8673E220d0E8BC0a810C2Dc6A2AA84,ethereum,True,False,,,,United States Permissionless Dollar (USPD),evm,1502256118.061802,1502256118.061802,494571.4576759303,494571.4576759303,2025-12-15 19:04:01,ethereum
https://intel.arkm.com/explorer/address/0x3304E22DDaa22bCdC5fCa2269b418046aE7b566A,0x3304E22DDaa22bCdC5fCa2269b418046aE7b566A,ethereum,False,False,Binance,cex,https://binance.com,Hot Wallet,evm,1071603369.6525891,1225254651.7761803,351613.87661374744,404365.601633,2025-12-15 19:04:01,ethereum
https://intel.arkm.com/explorer/address/0x4976A4A02f38326660D17bf34b431dC6e2eb2327,0x4976A4A02f38326660D17bf34b431dC6e2eb2327,ethereum,False,False,Binance,cex,https://binance.com,Hot Wallet,evm,1562503772.8960245,1648903938.1982622,517923.6455388837,545730.8688539499,2025-12-15 19:04:01,ethereum
https://intel.arkm.com/explorer/address/0x56Eddb7aa87536c09CCc2793473599fD21A8b17F,0x56Eddb7aa87536c09CCc2793473599fD21A8b17F,ethereum,False,False,Binance,cex,https://binance.com,Hot Wallet,evm,1434042649.1457157,1442693004.7301419,477985.765359235,481507.46712364,2025-12-15 19:04:01,ethereum
https://intel.arkm.com/explorer/address/0xEDc7001e99a37c3D23b5f7974F837387e09f9C93,0xEDc7001e99a37c3D23b5f7974F837387e09f9C93,ethereum,False,False,Coinbase,cex,https://coinbase.com,Deposit,evm,1193939916.75,1194184048.015625,394045.196569,394045.1887357023,2025-12-15 19:04:01,ethereum
https://intel.arkm.com/explorer/address/0xA9D1e08C7793af67e9d92fe308d5697FB81d3E43,0xA9D1e08C7793af67e9d92fe308d5697FB81d3E43,ethereum,True,False,Coinbase,cex,https://coinbase.com,Hot Wallet,evm,9406259639.971025,9440666613.09779,3111213.674376659,3122103.805056493,2025-12-15 19:04:01,ethereum
https://intel.arkm.com/explorer/address/0x0003B5Aa5E30E97FcC596BB5D0F3A75255E08D4e,0x0003B5Aa5E30E97FcC596BB5D0F3A75255E08D4e,ethereum,False,False,OKX,cex,https://okx.com,Hot Wallet,evm,1433158551.2464912,1431226562.9500902,470608.60125567985,468200.60091715,2025-12-15 19:04:01,ethereum
https://intel.arkm.com/explorer/address/0x9008D19f58AAbD9eD0D60971565AA8510560ab41,0x9008D19f58AAbD9eD0D60971565AA8510560ab41,ethereum,True,False,CoW Protocol,dex-aggregator,https://cow.fi,Settlement,evm,1243091360.681825,1240245655.0938516,415913.0263219454,414972.6826231151,2025-12-15 19:04:01,ethereum
https://intel.arkm.com/explorer/address/0xa1abfA21f80ecf401bd41365adBb6fEF6fEfDF09,0xa1abfA21f80ecf401bd41365adBb6fEF6fEfDF09,ethereum,False,False,Bybit,cex,https://bybit.com,Hot Wallet,evm,1060646561.9183037,1115037160.3865726,350684.3280469893,369312.41636319144,2025-12-15 19:04:01,ethereum
https://intel.arkm.com/explorer/address/0x21a31Ee1afC51d94C2eFcCAa2092aD1028285549,0x21a31Ee1afC51d94C2eFcCAa2092aD1028285549,ethereum,False,False,Binance,cex,https://binance.com,Hot Wallet,evm,1832477442.0945897,1834093539.0008538,605473.0979257015,605469.33734098,2025-12-15 19:04:01,ethereum
https://intel.arkm.com/explorer/address/0xB38e8c17e38363aF6EbdCb3dAE12e0243582891D,0xB38e8c17e38363aF6EbdCb3dAE12e0243582891D,ethereum,False,False,Binance,cex,https://binance.com,Hot Wallet,evm,1828828570.8719628,1898912352.8212936,602446.1328497882,631193.0663272,2025-12-15 19:04:01,ethereum
https://intel.arkm.com/explorer/address/0x1E8540d60a7B34E79DA540FFf2d11bC4ad832f76,0x1E8540d60a7B34E79DA540FFf2d11bC4ad832f76,ethereum,True,False,,,,,,1413705292.7972984,1413705334.270626,468580.4041269076,468580.3960257313,2025-12-15 19:04:01,ethereum
https://intel.arkm.com/explorer/address/0xbdAeDf327F5bc552a8479326562F6EfEAB2D8d96,0xbdAeDf327F5bc552a8479326562F6EfEAB2D8d96,ethereum,False,False,Wintermute,fund,https://www.wintermute.com/,,,1238371687.75,1239624389.453125,407776.3,407867.9,2025-12-15 19:04:01,ethereum
https://intel.arkm.com/explorer/address/0x5283BEcEd7ADF6D003225C13896E536f2D4264FF,0x5283BEcEd7ADF6D003225C13896E536f2D4264FF,ethereum,False,False,Aave,lending-decentralized,https://aave.com,,,820295926.5952402,820295938.5130895,272569.1238944905,272569.1276944905,2025-12-15 19:04:01,ethereum
https://intel.arkm.com/explorer/address/0xEae7380dD4CeF6fbD1144F49E4D1e6964258A4F4,0xEae7380dD4CeF6fbD1144F49E4D1e6964258A4F4,ethereum,False,False,Wintermute,fund,https://www.wintermute.com/,Binance Deposit,evm,5784053277.7999525,5784935215.719727,1913163.7551766015,1912442.922183415,2025-12-15 19:04:01,ethereum
https://intel.arkm.com/explorer/address/0xf8191D98ae98d2f7aBDFB63A9b0b812b93C873AA,0xf8191D98ae98d2f7aBDFB63A9b0b812b93C873AA,ethereum,False,False,Wintermute,fund,https://www.wintermute.com/,Hot Wallet,evm,2136170639.283321,2166024374.492026,704098.9228077715,713810.685871665,2025-12-15 19:04:01,ethereum
https://intel.arkm.com/explorer/address/0xC36442b4a4522E871399CD717aBDD847Ab11FE88,0xC36442b4a4522E871399CD717aBDD847Ab11FE88,ethereum,True,False,Uniswap,dex,https://uniswap.org,Nonfungible Position Manager,evm,914040919.4962739,905500820.9219072,307990.34632060386,304956.6822857535,2025-12-15 19:04:01,ethereum
https://intel.arkm.com/explorer/address/0xCFFAd3200574698b78f32232aa9D63eABD290703,0xCFFAd3200574698b78f32232aa9D63eABD290703,ethereum,False,False,Crypto.com,cex,https://crypto.com,Hot Wallet,evm,0.0,806071215.6836548,0.0,268086.31089153,2025-12-15 19:04:01,ethereum
https://intel.arkm.com/explorer/address/0xd36F184111225D065884e129566752968c96E26c,0xd36F184111225D065884e129566752968c96E26c,ethereum,True,False,,,,MEV Bot,evm,6772421530.486731,6772421518.216821,2277143.1668326994,2277143.1668326994,2025-12-15 19:04:01,ethereum
https://intel.arkm.com/explorer/address/0xCD531Ae9EFCCE479654c4926dec5F6209531Ca7b,0xCD531Ae9EFCCE479654c4926dec5F6209531Ca7b,ethereum,False,False,Coinbase Prime,cex,https://www.coinbase.com/prime,Hot Wallet,evm,4198824688.6710925,4198877085.3487477,1393243.4483875842,1392063.371668601,2025-12-15 19:04:01,ethereum
https://intel.arkm.com/explorer/address/0x4752ba5DBc23f44D87826276BF6Fd6b1C372aD24,0x4752ba5DBc23f44D87826276BF6Fd6b1C372aD24,ethereum,True,False,Uniswap,dex,https://uniswap.org,Quoter,evm,2215403147.5750575,2215405386.1034484,732255.381986139,732256.1442294887,2025-12-15 19:04:01,ethereum
https://intel.arkm.com/explorer/address/0x52Aa899454998Be5b000Ad077a46Bbe360F4e497,0x52Aa899454998Be5b000Ad077a46Bbe360F4e497,ethereum,True,False,Fluid (Instadapp),misc,https://fluid.instadapp.io,FluidLiquidityProxy,evm,1510415918.431473,1545524030.6695728,507321.29002564587,517753.8650353636,2025-12-15 19:04:01,ethereum
https://intel.arkm.com/explorer/address/0x536c4921D1aAfDE6a5cda882fb5cA046f3601c65,0x536c4921D1aAfDE6a5cda882fb5cA046f3601c65,ethereum,False,False,OKX,cex,https://okx.com,Hot Wallet,evm,964431062.8808473,868187585.72472,318218.9382467374,286742.16906612,2025-12-15 19:04:01,ethereum
https://intel.arkm.com/explorer/address/0x46340b20830761efd32832A74d7169B29FEB9758,0x46340b20830761efd32832A74d7169B29FEB9758,ethereum,False,False,Crypto.com,cex,https://crypto.com,Hot Wallet,evm,828366409.897046,786714097.0820689,275471.3654838369,261919.3501607221,2025-12-15 19:04:01,ethereum
https://intel.arkm.com/explorer/address/0x0000000000000000000000000000000000000064,0x0000000000000000000000000000000000000064,ethereum,False,False,Arbitrum,smart-contract-platform,https://arbitrum.foundation/,ArbSys,evm,0.0,761078227.7670391,0.0,252277.60018583416,2025-12-15 19:04:01,ethereum
https://intel.arkm.com/explorer/address/0x9696f59E4d72E237BE84fFD425DCaD154Bf96976,0x9696f59E4d72E237BE84fFD425DCaD154Bf96976,ethereum,False,False,Binance,cex,https://binance.com,Hot Wallet,evm,1789206334.7397842,1791602673.9755938,590446.30790337,592730.13543564,2025-12-15 19:04:01,ethereum
https://intel.arkm.com/explorer/address/0x93486B98e64de344d6A5A322A4Bd80e65d83E5CA,0x93486B98e64de344d6A5A322A4Bd80e65d83E5CA,ethereum,True,False,,,,Core USPD Share (CUSPD),evm,1502256118.061802,1474183787.7278225,494571.4576759303,485305.1206509323,2025-12-15 19:04:01,ethereum
https://intel.arkm.com/explorer/address/0x28C6c06298d514Db089934071355E5743bf21d60,0x28C6c06298d514Db089934071355E5743bf21d60,ethereum,False,False,Binance,cex,https://binance.com,Hot Wallet,evm,11299178299.375862,11169654115.460907,3725953.158089012,3702160.07509413,2025-12-15 19:04:01,ethereum
https://intel.arkm.com/explorer/address/0xae7ab96520DE3A18E5e111B5EaAb095312D7fE84,0xae7ab96520DE3A18E5e111B5EaAb095312D7fE84,ethereum,True,False,Lido,liquid-staking,https://lido.fi,Lido Staked Ether Token (STETH),evm,1085239566.4374511,1083135418.1484375,356921.30825863447,355888.2165838375,2025-12-15 19:04:01,ethereum
https://intel.arkm.com/explorer/address/0xbD216513d74C8cf14cf4747E6AaA6420FF64ee9e,0xbD216513d74C8cf14cf4747E6AaA6420FF64ee9e,ethereum,True,False,Uniswap,dex,https://uniswap.org,Uniswap v4 Positions NFT (UNI-V4-POSM),evm,832271770.8401248,832271770.9239488,274688.38124303165,274688.38124303165,2025-12-15 19:04:01,ethereum
https://intel.arkm.com/explorer/address/0x51C72848c68a965f66FA7a88855F9f7784502a7F,0x51C72848c68a965f66FA7a88855F9f7784502a7F,ethereum,True,False,Wintermute,fund,https://www.wintermute.com/,Market Maker,evm,3930058689.9391975,3930180301.716036,1295649.7782916555,1295711.4537276921,2025-12-15 19:04:01,ethereum
https://intel.arkm.com/explorer/address/0x8C864D0c8E476Bf9eb9d620C10E1296fb0E2F940,0x8C864D0c8E476Bf9eb9d620C10E1296fb0E2F940,ethereum,True,False,1inch,dex-aggregator,https://1inch.io,,,782471503.4982339,0.0,263245.2951023069,0.0,2025-12-15 19:04:01,ethereum
https://intel.arkm.com/explorer/address/0xad6eaa735D9dF3D7696fd03984379dAE02eD8862,0xad6eaa735D9dF3D7696fd03984379dAE02eD8862,ethereum,False,False,Cumberland DRW,fund,https://cumberland.io,,,763519083.6890129,0.0,256545.08331071257,0.0,2025-12-15 19:04:01,ethereum
https://intel.arkm.com/explorer/address/0xb5d85CBf7cB3EE0D56b3bB207D5Fc4B82f43F511,0xb5d85CBf7cB3EE0D56b3bB207D5Fc4B82f43F511,ethereum,False,False,Coinbase,cex,https://coinbase.com,Hot Wallet,evm,4888088415.278016,4859748458.945004,1621790.2231312727,1611814.795578499,2025-12-15 19:04:01,ethereum
https://intel.arkm.com/explorer/address/0x000000000004444c5dc75cB358380D2e3dE08A90,0x000000000004444c5dc75cB358380D2e3dE08A90,ethereum,True,False,Uniswap,dex,https://uniswap.org,PoolManager,evm,2980635860.005138,2971184770.8370237,987304.0587834261,984659.4446057687,2025-12-15 19:04:01,ethereum
https://intel.arkm.com/explorer/address/0xf30ba13e4b04Ce5dC4D254Ae5FA95477800F0EB0,0xf30ba13e4b04Ce5dC4D254Ae5FA95477800F0EB0,ethereum,False,False,Kraken,cex,https://kraken.com,Hot Wallet,evm,1836841700.0076761,2263720858.5562015,613961.8457891635,744006.8458914529,2025-12-15 19:04:01,ethereum
https://intel.arkm.com/explorer/address/0xA9D1e08C7793af67e9d92fe308d5697FB81d3E43,0xA9D1e08C7793af67e9d92fe308d5697FB81d3E43,ethereum,True,False,Coinbase,cex,https://coinbase.com,Hot Wallet,evm,480160220.5618286,520445234.9382413,35668589.20787484,38520572.36397128,2025-12-15 19:04:07,chainlink
https://intel.arkm.com/explorer/address/0xb5dE2447DEcDfeD41689D001A2EA9C4E052BF795,0xb5dE2447DEcDfeD41689D001A2EA9C4E052BF795,ethereum,False,False,,,,,,24152701.828125,0.0,1854640.313206888,0.0,2025-12-15 19:04:07,chainlink
https://intel.arkm.com/explorer/address/0x525869AD2488101b5cf47e0D898a59f029b32b03,0x525869AD2488101b5cf47e0D898a59f029b32b03,ethereum,False,False,,,,,,23835008.0,0.0,1618126.8747014718,0.0,2025-12-15 19:04:07,chainlink
https://intel.arkm.com/explorer/address/0x0D0707963952f2fBA59dD06f2b425ace40b492Fe,0x0D0707963952f2fBA59dD06f2b425ace40b492Fe,ethereum,False,False,Gate,cex,https://gate.com,Hot Wallet,evm,0.0,16976806.173652075,0.0,1277866.632738965,2025-12-15 19:04:07,chainlink
https://intel.arkm.com/explorer/address/0x556052af8B4f001b659066E061836B174E39c539,0x556052af8B4f001b659066E061836B174E39c539,ethereum,False,False,,,,,,0.0,16764550.033659935,0.0,1242152.5336748776,2025-12-15 19:04:07,chainlink
https://intel.arkm.com/explorer/address/0x21a31Ee1afC51d94C2eFcCAa2092aD1028285549,0x21a31Ee1afC51d94C2eFcCAa2092aD1028285549,ethereum,False,False,Binance,cex,https://binance.com,Hot Wallet,evm,55498038.829956055,63224235.42408812,4150677.87004598,4674607.44621999,2025-12-15 19:04:07,chainlink
https://intel.arkm.com/explorer/address/0xcD3968B5d2ad362063272a385F5c68FcC75c0749,0xcD3968B5d2ad362063272a385F5c68FcC75c0749,ethereum,False,False,,,,,,24823564.375,0.0,1836062.455038899,0.0,2025-12-15 19:04:07,chainlink
https://intel.arkm.com/explorer/address/0x207e1074858A7e78f17002075739eD2745dbaEce,0x207e1074858A7e78f17002075739eD2745dbaEce,ethereum,True,False,0x,dex,https://0x.org,MainnetSettler,evm,0.0,18282009.095137965,0.0,1389160.2144396591,2025-12-15 19:04:07,chainlink
https://intel.arkm.com/explorer/address/0xe401A6A38024d8f5aB88f1B08cad476cCaCA45E8,0xe401A6A38024d8f5aB88f1B08cad476cCaCA45E8,ethereum,False,False,Wintermute,fund,https://www.wintermute.com/,Bybit Deposit,evm,0.0,16388033.54296875,0.0,1212816.52187064,2025-12-15 19:04:07,chainlink
https://intel.arkm.com/explorer/address/0xC333E80eF2deC2805F239E3f1e810612D294F771,0xC333E80eF2deC2805F239E3f1e810612D294F771,ethereum,False,False,B2C2 Group,fund,https://www.b2c2.com,,,21301546.90831089,22950198.456573486,1588030.753375213,1713735.06951865,2025-12-15 19:04:07,chainlink
https://intel.arkm.com/explorer/address/0x5E8C8A7243651DB1384C0dDfDbE39761E8e7E51a,0x5E8C8A7243651DB1384C0dDfDbE39761E8e7E51a,ethereum,True,False,Aave,lending-decentralized,https://aave.com,Aave Ethereum LINK (aEthLINK),evm,47980805.18472961,51489626.327413425,3566887.8228506055,3907440.132686051,2025-12-15 19:04:07,chainlink
https://intel.arkm.com/explorer/address/0x000000000004444c5dc75cB358380D2e3dE08A90,0x000000000004444c5dc75cB358380D2e3dE08A90,ethereum,True,False,Uniswap,dex,https://uniswap.org,PoolManager,evm,37410622.37433017,37354701.43595116,2776034.342055667,2780072.393954345,2025-12-15 19:04:07,chainlink
https://intel.arkm.com/explorer/address/0x676Fc50D17307fBd491BAf19033f92D17a5Dc586,0x676Fc50D17307fBd491BAf19033f92D17a5Dc586,ethereum,False,False,,,,Coinbase Prime Deposit,evm,39383152.876359,39382265.125,2752079.95575,2752079.95565,2025-12-15 19:04:07,chainlink
https://intel.arkm.com/explorer/address/0x2f7a00d0278a92a0F240AeF1D15fb26c12909008,0x2f7a00d0278a92a0F240AeF1D15fb26c12909008,ethereum,False,False,,,,,,22857439.7265625,0.0,1753456.157902686,0.0,2025-12-15 19:04:07,chainlink
https://intel.arkm.com/explorer/address/0x58edF78281334335EfFa23101bBe3371b6a36A51,0x58edF78281334335EfFa23101bBe3371b6a36A51,ethereum,False,False,KuCoin,cex,https://kucoin.com,Hot Wallet,evm,22931098.861460686,22704319.37722683,1694487.8056611975,1678740.6269579711,2025-12-15 19:04:07,chainlink
https://intel.arkm.com/explorer/address/0xa6Cc3C2531FdaA6Ae1A3CA84c2855806728693e8,0xa6Cc3C2531FdaA6Ae1A3CA84c2855806728693e8,ethereum,True,False,Uniswap,dex,https://uniswap.org,LINK,evm,154441127.3159904,151147652.10177544,11517610.357401151,11286380.672967756,2025-12-15 19:04:07,chainlink
https://intel.arkm.com/explorer/address/0x44C3a96181AF9e295cE8E188FA8FcDd72D1eb668,0x44C3a96181AF9e295cE8E188FA8FcDd72D1eb668,ethereum,False,False,,,,,,21500878.047738086,17618214.08706665,1640893.1201100054,1351471.0,2025-12-15 19:04:07,chainlink
https://intel.arkm.com/explorer/address/0xBC64BDE4C3b70147C47c16dD9277a6Aaef7e0f02,0xBC64BDE4C3b70147C47c16dD9277a6Aaef7e0f02,ethereum,False,False,,,,,,0.0,23835008.0,0.0,1618126.8747014718,2025-12-15 19:04:07,chainlink
https://intel.arkm.com/explorer/address/0x0639556F03714A74a5fEEaF5736a4A64fF70D206,0x0639556F03714A74a5fEEaF5736a4A64fF70D206,ethereum,False,False,Bitget,cex,https://www.bitget.com/,Hot Wallet,evm,0.0,16713545.93406868,0.0,1239369.10085233,2025-12-15 19:04:07,chainlink
https://intel.arkm.com/explorer/address/0xEae7380dD4CeF6fbD1144F49E4D1e6964258A4F4,0xEae7380dD4CeF6fbD1144F49E4D1e6964258A4F4,ethereum,False,False,Wintermute,fund,https://www.wintermute.com/,Binance Deposit,evm,57487790.205078125,57529330.044921875,4227643.21239608,4227643.21239608,2025-12-15 19:04:07,chainlink
https://intel.arkm.com/explorer/address/0x1A52f521860Cc4bE382eBFB8D7700d4cE2cb654A,0x1A52f521860Cc4bE382eBFB8D7700d4cE2cb654A,ethereum,False,False,,,,,,24659634.1875,0.0,1838157.025445567,0.0,2025-12-15 19:04:07,chainlink
https://intel.arkm.com/explorer/address/0x1FA00bE39C9b815B039Fa5F3394405eEb9502C9c,0x1FA00bE39C9b815B039Fa5F3394405eEb9502C9c,ethereum,False,False,,,,Coinbase Deposit,evm,19964475.15234375,20397934.833984375,1510375.75636,1543484.42601,2025-12-15 19:04:07,chainlink
https://intel.arkm.com/explorer/address/0xB1dB79aea0a13382DD9E279d96Bc9a468A2F4E87,0xB1dB79aea0a13382DD9E279d96Bc9a468A2F4E87,ethereum,False,False,,,,,,199622110.50892437,199605240.89301035,14881375.540177725,14880034.102994021,2025-12-15 19:04:07,chainlink
https://intel.arkm.com/explorer/address/0x51C72848c68a965f66FA7a88855F9f7784502a7F,0x51C72848c68a965f66FA7a88855F9f7784502a7F,ethereum,True,False,Wintermute,fund,https://www.wintermute.com/,Market Maker,evm,122418392.2701203,122301782.11369318,9113744.141424045,9096344.304099537,2025-12-15 19:04:07,chainlink
https://intel.arkm.com/explorer/address/0xBEEf02961503351625926Ea9a11AE13B29F5c555,0xBEEf02961503351625926Ea9a11AE13B29F5c555,ethereum,False,False,,,,,,42470209.90454201,42450550.55382146,3215835.2381770634,3214267.2294684118,2025-12-15 19:04:07,chainlink
https://intel.arkm.com/explorer/address/0xFA103c21ea2DF71DFb92B0652F8B1D795e51cdEf,0xFA103c21ea2DF71DFb92B0652F8B1D795e51cdEf,ethereum,True,False,Symbolic Capital Partners,fund,https://symbolic.partners,CEX Bridge,evm,41452061.18359375,41458770.96777344,3095424.79242538,3096676.95942538,2025-12-15 19:04:07,chainlink
https://intel.arkm.com/explorer/address/0x79dD9327352BcF1dd16941899705E97b61F4DEcB,0x79dD9327352BcF1dd16941899705E97b61F4DEcB,ethereum,False,False,Kraken,cex,https://kraken.com,Hot Wallet,evm,39405650.451980606,39998027.65159918,2952001.068736838,2978193.92925149,2025-12-15 19:04:07,chainlink
https://intel.arkm.com/explorer/address/0xBEE3211ab312a8D065c4FeF0247448e17A8da000,0xBEE3211ab312a8D065c4FeF0247448e17A8da000,ethereum,True,False,,,,Market Maker,evm,36996121.8332171,36945683.7442825,2782405.3521229587,2778729.4042963837,2025-12-15 19:04:07,chainlink
https://intel.arkm.com/explorer/address/0x1BF7A9E3A364e7F5761345837f222cd93e230C4f,0x1BF7A9E3A364e7F5761345837f222cd93e230C4f,ethereum,False,False,,,,Binance Deposit,evm,23537061.9453125,23558117.12890625,1742655.4,1742655.4,2025-12-15 19:04:07,chainlink
https://intel.arkm.com/explorer/address/0x8c412C3A262702C7F7597D28D2b8e999b1BAE3dF,0x8c412C3A262702C7F7597D28D2b8e999b1BAE3dF,ethereum,False,False,,,,,,24239790.3125,0.0,1705233.0664830077,0.0,2025-12-15 19:04:07,chainlink
https://intel.arkm.com/explorer/address/0x2Ad5004c60e16E54d5007C80CE329Adde5B51Ef5,0x2Ad5004c60e16E54d5007C80CE329Adde5B51Ef5,ethereum,True,False,1inch,dex-aggregator,https://1inch.io,Settlement,evm,40769042.30114883,40769042.19848162,3145668.364333866,3145668.364333866,2025-12-15 19:04:07,chainlink
https://intel.arkm.com/explorer/address/0x468b88941e7Cc0B88c1869d68ab6b570bCEF62Ff,0x468b88941e7Cc0B88c1869d68ab6b570bCEF62Ff,ethereum,False,False,Uniswap,dex,https://uniswap.org,,,21637697.482092004,21041278.402320933,1618013.4055714004,1577468.6611101376,2025-12-15 19:04:07,chainlink
https://intel.arkm.com/explorer/address/0xe3D6d8BCDC4Eb4e24aD7523D98C394960e8C1d32,0xe3D6d8BCDC4Eb4e24aD7523D98C394960e8C1d32,ethereum,False,False,Coinbase,cex,https://coinbase.com,,,0.0,18935552.0,0.0,1405757.4545558346,2025-12-15 19:04:07,chainlink
https://intel.arkm.com/explorer/address/0x5d4F3C6fA16908609BAC31Ff148Bd002AA6b8c83,0x5d4F3C6fA16908609BAC31Ff148Bd002AA6b8c83,ethereum,True,False,Uniswap,dex,https://uniswap.org,LINK 2,evm,29457115.31570298,29240687.419521067,2212641.2167027122,2197062.1864678822,2025-12-15 19:04:07,chainlink
https://intel.arkm.com/explorer/address/0x4A4aaA0155237881FBD5C34BfaE16e985A7B068D,0x4A4aaA0155237881FBD5C34BfaE16e985A7B068D,ethereum,False,False,OKX,cex,https://okx.com,Hot Wallet,evm,22704222.00415039,24963205.861525536,1720910.50509118,1887664.99196504,2025-12-15 19:04:07,chainlink
https://intel.arkm.com/explorer/address/0x191c10Aa4AF7C30e871E70C95dB0E4eb77237530,0x191c10Aa4AF7C30e871E70C95dB0E4eb77237530,ethereum,False,False,Aave,lending-decentralized,https://aave.com,,,0.0,19059947.185132336,0.0,1440031.846615065,2025-12-15 19:04:07,chainlink
https://intel.arkm.com/explorer/address/0xDdfF0cdb9A67fda3363488140ea3E2159A43c2D4,0xDdfF0cdb9A67fda3363488140ea3E2159A43c2D4,ethereum,False,False,,,,Coinbase Prime Custody,evm,0.0,19560394.0,0.0,1432995.9175481338,2025-12-15 19:04:07,chainlink
https://intel.arkm.com/explorer/address/0x28C6c06298d514Db089934071355E5743bf21d60,0x28C6c06298d514Db089934071355E5743bf21d60,ethereum,False,False,Binance,cex,https://binance.com,Hot Wallet,evm,229686772.6107025,226373721.45987386,17097518.5950432,16898496.11727216,2025-12-15 19:04:07,chainlink
https://intel.arkm.com/explorer/address/0xDFd5293D8e347dFe59E90eFd55b2956a1343963d,0xDFd5293D8e347dFe59E90eFd55b2956a1343963d,ethereum,False,False,Binance,cex,https://binance.com,Hot Wallet,evm,85173066.0,88876576.2217136,6340704.7622429,6653203.62561143,2025-12-15 19:04:07,chainlink
https://intel.arkm.com/explorer/address/0x4b929b5d1b5D55F4e5597F0E9B2a35141038D313,0x4b929b5d1b5D55F4e5597F0E9B2a35141038D313,ethereum,False,False,,,,Coinbase Prime Deposit,evm,36708573.28499985,36728056.5,2741255.89505,2741255.89505,2025-12-15 19:04:07,chainlink
https://intel.arkm.com/explorer/address/0x8C864D0c8E476Bf9eb9d620C10E1296fb0E2F940,0x8C864D0c8E476Bf9eb9d620C10E1296fb0E2F940,ethereum,True,False,1inch,dex-aggregator,https://1inch.io,,,24283892.949418306,24283555.105079938,1846670.9518875557,1846643.655055677,2025-12-15 19:04:07,chainlink
https://intel.arkm.com/explorer/address/0xE072965ccc7c28e746BFAE2252C64Df7ebCFdE0C,0xE072965ccc7c28e746BFAE2252C64Df7ebCFdE0C,ethereum,False,False,,,,,,24797514.875,0.0,1813129.20812205,0.0,2025-12-15 19:04:07,chainlink
https://intel.arkm.com/explorer/address/0xC17A40852E4BfE04Bc81Af355Fdf132C539bA753,0xC17A40852E4BfE04Bc81Af355Fdf132C539bA753,ethereum,False,False,,,,Binance Deposit,evm,0.0,16371517.986328125,0.0,1214690.92,2025-12-15 19:04:07,chainlink
https://intel.arkm.com/explorer/address/0xFAD57d2039C21811C8F2B5D5B65308aa99D31559,0xFAD57d2039C21811C8F2B5D5B65308aa99D31559,ethereum,True,False,Uniswap,dex,https://uniswap.org,LINK-USDC,evm,50393819.42478463,51012279.22505644,3854551.477907784,3909862.6334048635,2025-12-15 19:04:07,chainlink
https://intel.arkm.com/explorer/address/0x9008D19f58AAbD9eD0D60971565AA8510560ab41,0x9008D19f58AAbD9eD0D60971565AA8510560ab41,ethereum,True,False,CoW Protocol,dex-aggregator,https://cow.fi,Settlement,evm,47929898.876273185,47928625.90950641,3604400.804524267,3604300.128711183,2025-12-15 19:04:07,chainlink
https://intel.arkm.com/explorer/address/0x4e4cE6a0B799EA18616e4773f321D44A07CEa790,0x4e4cE6a0B799EA18616e4773f321D44A07CEa790,ethereum,False,False,,,,,,25471555.203125,0.0,1865336.0787132676,0.0,2025-12-15 19:04:07,chainlink
https://intel.arkm.com/explorer/address/0xA16FFE16D4a4E926D71d68F447b3BB3DE23f56e8,0xA16FFE16D4a4E926D71d68F447b3BB3DE23f56e8,ethereum,False,False,,,,,,24642820.6875,0.0,1828848.1929599682,0.0,2025-12-15 19:04:07,chainlink
https://intel.arkm.com/explorer/address/0xCD531Ae9EFCCE479654c4926dec5F6209531Ca7b,0xCD531Ae9EFCCE479654c4926dec5F6209531Ca7b,ethereum,False,False,Coinbase Prime,cex,https://www.coinbase.com/prime,Hot Wallet,evm,312210350.97861576,312903653.27236605,22286599.401033483,22313787.855876066,2025-12-15 19:04:07,chainlink
https://intel.arkm.com/explorer/address/0x204ad5bed7eb66e002329A018BB96d87a8dB1AA8,0x204ad5bed7eb66e002329A018BB96d87a8dB1AA8,ethereum,False,False,Coinbase,cex,https://coinbase.com,,,0.0,19033956.0,0.0,1405757.4545558346,2025-12-15 19:04:07,chainlink
https://intel.arkm.com/explorer/address/0xf8191D98ae98d2f7aBDFB63A9b0b812b93C873AA,0xf8191D98ae98d2f7aBDFB63A9b0b812b93C873AA,ethereum,False,False,Wintermute,fund,https://www.wintermute.com/,Hot Wallet,evm,78317142.75538144,80124997.89687252,5758586.036026068,5899724.8690925,2025-12-15 19:04:07,chainlink
https://intel.arkm.com/explorer/address/0x651641299C7eC0aA44AD7eD9b7E12702fED2022f,0x651641299C7eC0aA44AD7eD9b7E12702fED2022f,ethereum,False,False,Bybit,cex,https://bybit.com,Hot Wallet,evm,38619749.628054895,38516712.9862189,2888206.903466855,2901925.8436749103,2025-12-15 19:04:07,chainlink
https://intel.arkm.com/explorer/address/0x91D40E4818F4D4C57b4578d9ECa6AFc92aC8DEbE,0x91D40E4818F4D4C57b4578d9ECa6AFc92aC8DEbE,ethereum,False,False,OKX,cex,https://okx.com,Hot Wallet,evm,35500884.481708296,35392975.91817713,2617548.0622288473,2609073.45643994,2025-12-15 19:04:07,chainlink
https://intel.arkm.com/explorer/address/0x2B83aaCB0dD973866B563cFb0EF0AEF24B93200b,0x2B83aaCB0dD973866B563cFb0EF0AEF24B93200b,ethereum,False,False,,,,Coinbase Prime Custody,evm,38944119.718285,42445400.296875,2909944.0244899974,3142733.629701963,2025-12-15 19:04:07,chainlink
https://intel.arkm.com/explorer/address/0x841ed663F2636863D40be4EE76243377dff13a34,0x841ed663F2636863D40be4EE76243377dff13a34,ethereum,False,False,Robinhood,cex,https://robinhood.com/,Hot Wallet,evm,26270542.38181739,22443145.80046892,2050891.357214279,1705684.5562970801,2025-12-15 19:04:07,chainlink
https://intel.arkm.com/explorer/address/0x2Ad4958554a1015F8b10AC673C1A4f19359EF074,0x2Ad4958554a1015F8b10AC673C1A4f19359EF074,ethereum,False,False,,,,,,28840000.0,0.0,2000000.0,0.0,2025-12-15 19:04:07,chainlink
https://intel.arkm.com/explorer/address/0x7f604D597c15b2e2F60DC645844f68b1D781b752,0x7f604D597c15b2e2F60DC645844f68b1D781b752,ethereum,False,False,Bitstamp,cex,https://bitstamp.net,Hot Wallet,evm,18502855.752421077,20894001.20665145,1395335.3534414251,1553175.25246839,2025-12-15 19:04:07,chainlink
https://intel.arkm.com/explorer/address/0x177a7376860a04eEA6BF7fb3F39Bf10c49D3b42C,0x177a7376860a04eEA6BF7fb3F39Bf10c49D3b42C,ethereum,False,False,Blackhole,dex,https://blackhole.xyz/,,,202769358.45877436,202766522.37991747,15115242.671932278,15116030.063008538,2025-12-15 19:04:07,chainlink
https://intel.arkm.com/explorer/address/0xA69babEF1cA67A37Ffaf7a485DfFF3382056e78C,0xA69babEF1cA67A37Ffaf7a485DfFF3382056e78C,ethereum,True,False,Symbolic Capital Partners,fund,https://symbolic.partners,MEV Bot,evm,116770203.92115617,116692798.10290062,8721200.301480092,8711191.456624724,2025-12-15 19:04:07,chainlink
https://intel.arkm.com/explorer/address/0xfBd4cdB413E45a52E2C8312f670e9cE67E794C37,0xfBd4cdB413E45a52E2C8312f670e9cE67E794C37,ethereum,True,False,,,,,,43604822.212748766,43527925.36204481,3243567.698496182,3229478.1640801122,2025-12-15 19:04:07,chainlink
https://intel.arkm.com/explorer/address/0x6D65514D816b90b96A859D95B084037DDB73956A,0x6D65514D816b90b96A859D95B084037DDB73956A,ethereum,False,False,,,,,,25339752.765625,0.0,1813129.20812205,0.0,2025-12-15 19:04:07,chainlink
https://intel.arkm.com/explorer/address/0x63242A4Ea82847b20E506b63B0e2e2eFF0CC6cB0,0x63242A4Ea82847b20E506b63B0e2e2eFF0CC6cB0,ethereum,True,False,Kyber Network,dex,https://kyber.network,Aggregator Executor V3,evm,19261034.75852928,17657027.98901639,1463343.0434794205,1341709.0882701762,2025-12-15 19:04:07,chainlink
https://intel.arkm.com/explorer/address/0x7D94077f58593F8b97c5cAB56c8924E13b49946E,0x7D94077f58593F8b97c5cAB56c8924E13b49946E,ethereum,False,False,Kraken,cex,https://kraken.com,Hot Wallet,evm,24572289.112219885,29307325.644175015,137658.23676380294,161715.50986599,2025-12-15 19:04:09,aave
https://intel.arkm.com/explorer/address/0x372cAE7fA19b81A9786A9081704EA1e2DAD576b7,0x372cAE7fA19b81A9786A9081704EA1e2DAD576b7,ethereum,False,False,,,,,,16015239.0,16024705.875,86138.93691625001,86138.93691625001,2025-12-15 19:04:09,aave
https://intel.arkm.com/explorer/address/0x51C72848c68a965f66FA7a88855F9f7784502a7F,0x51C72848c68a965f66FA7a88855F9f7784502a7F,ethereum,True,False,Wintermute,fund,https://www.wintermute.com/,Market Maker,evm,78277488.29139842,77778482.9904455,445526.7008739123,442495.08575979935,2025-12-15 19:04:09,aave
https://intel.arkm.com/explorer/address/0xBA12222222228d8Ba445958a75a0704d566BF2C8,0xBA12222222228d8Ba445958a75a0704d566BF2C8,ethereum,True,False,Balancer,dex,https://balancer.fi,Vault,evm,77419933.72754914,78010225.90377024,428942.3143648274,432586.4525275814,2025-12-15 19:04:09,aave
https://intel.arkm.com/explorer/address/0xF21F6a09e488a7177C59e8E2d362aDec661E7689,0xF21F6a09e488a7177C59e8E2d362aDec661E7689,ethereum,False,False,,,,,,25233868.03125,0.0,132228.40927114806,0.0,2025-12-15 19:04:09,aave
https://intel.arkm.com/explorer/address/0x4da27a545c0c5B758a6BA100e3a049001de870f5,0x4da27a545c0c5B758a6BA100e3a049001de870f5,ethereum,True,False,Aave,lending-decentralized,https://aave.com,Staked Aave (stkAAVE),evm,14027166.344125751,15184757.191497833,80630.29742694121,87825.56215486935,2025-12-15 19:04:09,aave
https://intel.arkm.com/explorer/address/0xBC8A0f5E41857292D12Ef620e2a5895ce65A5Ce0,0xBC8A0f5E41857292D12Ef620e2a5895ce65A5Ce0,ethereum,False,False,Wintermute,fund,https://www.wintermute.com/,OKX Deposit,evm,10799545.6484375,10791933.58203125,60174.98015913,60174.98015913,2025-12-15 19:04:09,aave
https://intel.arkm.com/explorer/address/0x16F6d15381bEE4A25B25F0d1C4161b78f7F21Fde,0x16F6d15381bEE4A25B25F0d1C4161b78f7F21Fde,ethereum,False,False,,,,,,22423062.777950287,22333248.0,128582.3279,127739.0,2025-12-15 19:04:09,aave
https://intel.arkm.com/explorer/address/0x9bA0CF1588E1DFA905eC948F7FE5104dD40EDa31,0x9bA0CF1588E1DFA905eC948F7FE5104dD40EDa31,ethereum,True,False,TrustedVolumes,fund,,Market Maker,evm,13755647.517779889,13616226.389547748,76432.93601116042,75557.01256066498,2025-12-15 19:04:09,aave
https://intel.arkm.com/explorer/address/0x416Ec2cA21a38CbCFeAcD6a14532B3F348356d23,0x416Ec2cA21a38CbCFeAcD6a14532B3F348356d23,ethereum,False,False,,,,,,12628652.928549105,12612514.88188219,69034.03493193224,68965.38079097158,2025-12-15 19:04:09,aave
https://intel.arkm.com/explorer/address/0x1a353A852Ba8EC5aC634695E0d65f2729223471D,0x1a353A852Ba8EC5aC634695E0d65f2729223471D,ethereum,False,False,,,,,,12994457.140625,0.0,67217.24174118352,0.0,2025-12-15 19:04:09,aave
https://intel.arkm.com/explorer/address/0x28C6c06298d514Db089934071355E5743bf21d60,0x28C6c06298d514Db089934071355E5743bf21d60,ethereum,False,False,Binance,cex,https://binance.com,Hot Wallet,evm,190853883.1254902,184101088.6373291,1062037.97554721,1026947.00596758,2025-12-15 19:04:09,aave
https://intel.arkm.com/explorer/address/0xCD531Ae9EFCCE479654c4926dec5F6209531Ca7b,0xCD531Ae9EFCCE479654c4926dec5F6209531Ca7b,ethereum,False,False,Coinbase Prime,cex,https://www.coinbase.com/prime,Hot Wallet,evm,78532621.21337128,78417656.29049206,432068.5531412509,430970.34025148134,2025-12-15 19:04:09,aave
https://intel.arkm.com/explorer/address/0xfBd4cdB413E45a52E2C8312f670e9cE67E794C37,0xfBd4cdB413E45a52E2C8312f670e9cE67E794C37,ethereum,True,False,,,,,,42464688.210386366,42520981.79455763,235570.14261970646,234851.5373932227,2025-12-15 19:04:09,aave
https://intel.arkm.com/explorer/address/0xC333E80eF2deC2805F239E3f1e810612D294F771,0xC333E80eF2deC2805F239E3f1e810612D294F771,ethereum,False,False,B2C2 Group,fund,https://www.b2c2.com,,,8564770.300285963,8374347.039730072,47275.67479342,46197.13590999,2025-12-15 19:04:09,aave
https://intel.arkm.com/explorer/address/0x63242A4Ea82847b20E506b63B0e2e2eFF0CC6cB0,0x63242A4Ea82847b20E506b63B0e2e2eFF0CC6cB0,ethereum,True,False,Kyber Network,dex,https://kyber.network,Aggregator Executor V3,evm,0.0,8214113.108259543,0.0,44811.642220126196,2025-12-15 19:04:09,aave
https://intel.arkm.com/explorer/address/0xDFd5293D8e347dFe59E90eFd55b2956a1343963d,0xDFd5293D8e347dFe59E90eFd55b2956a1343963d,ethereum,False,False,Binance,cex,https://binance.com,Hot Wallet,evm,62078858.5,60355431.73694903,345457.78480362,333185.82856041,2025-12-15 19:04:09,aave
https://intel.arkm.com/explorer/address/0x118Bc4c55700db03Ea29A0d920D22221DC1A9620,0x118Bc4c55700db03Ea29A0d920D22221DC1A9620,ethereum,False,False,,,,,,25143300.625,0.0,132629.7415172425,0.0,2025-12-15 19:04:09,aave
https://intel.arkm.com/explorer/address/0xB0A27099582833c0Cb8C7A0565759fF145113d64,0xB0A27099582833c0Cb8C7A0565759fF145113d64,ethereum,False,False,OKX,cex,https://okx.com,Cold Wallet,evm,11485951.453125,11378733.626708984,64182.7,63487.998295,2025-12-15 19:04:09,aave
https://intel.arkm.com/explorer/address/0x091D1C972cb1648537a2Ba78eaBa371b1cE18336,0x091D1C972cb1648537a2Ba78eaBa371b1cE18336,ethereum,False,False,,,,,,10415949.207634449,10768034.280014038,60622.65808709,60259.19113921,2025-12-15 19:04:09,aave
https://intel.arkm.com/explorer/address/0xA3222357a0eCCF60C73606170be6c99ADeCb59b3,0xA3222357a0eCCF60C73606170be6c99ADeCb59b3,ethereum,True,False,HitBTC,cex,https://hitbtc.com,Hot Wallet,evm,9631687.696872711,9632770.051433563,52790.85418593961,52794.71829531,2025-12-15 19:04:09,aave
https://intel.arkm.com/explorer/address/0xA9D1e08C7793af67e9d92fe308d5697FB81d3E43,0xA9D1e08C7793af67e9d92fe308d5697FB81d3E43,ethereum,True,False,Coinbase,cex,https://coinbase.com,Hot Wallet,evm,243611040.25976562,244142873.42184567,1298044.2221980738,1299667.7719929125,2025-12-15 19:04:09,aave
https://intel.arkm.com/explorer/address/0x46e946468f747D0E563527Bd069d4deD731F33A4,0x46e946468f747D0E563527Bd069d4deD731F33A4,ethereum,False,False,,,,,,24883943.0,0.0,132020.61090106465,0.0,2025-12-15 19:04:09,aave
https://intel.arkm.com/explorer/address/0x6E9Ddc0143CF07D21EA51b6406755E2da9BE0F58,0x6E9Ddc0143CF07D21EA51b6406755E2da9BE0F58,ethereum,False,False,,,,,,11187817.5,0.0,59451.035870996886,0.0,2025-12-15 19:04:09,aave
https://intel.arkm.com/explorer/address/0xAD85405cbB1476825B78a021fa9E543bF7937549,0xAD85405cbB1476825B78a021fa9E543bF7937549,ethereum,False,False,Bybit,cex,https://bybit.com,Hot Wallet,evm,32769796.952723328,31334226.748271883,183829.74969588933,176565.3795168,2025-12-15 19:04:09,aave
https://intel.arkm.com/explorer/address/0x59c38b6775Ded821f010DbD30eCabdCF84E04756,0x59c38b6775Ded821f010DbD30eCabdCF84E04756,ethereum,True,False,Uniswap,dex,https://uniswap.org,UNI-AAVE 2,evm,9775735.944772232,10731603.897013359,55150.1193429611,60488.42969464728,2025-12-15 19:04:09,aave
https://intel.arkm.com/explorer/address/0xF977814e90dA44bFA03b6295A0616a897441aceC,0xF977814e90dA44bFA03b6295A0616a897441aceC,ethereum,False,False,Binance,cex,https://binance.com,Cold Wallet,evm,0.0,37163156.0,0.0,206806.66,2025-12-15 19:04:09,aave
https://intel.arkm.com/explorer/address/0x4FD01341D7AD9592E0627eD20952466aD9bB831F,0x4FD01341D7AD9592E0627eD20952466aD9bB831F,ethereum,False,False,Coinbase,cex,https://coinbase.com,Cold Wallet,evm,0.0,10409277.0,0.0,54705.04932268511,2025-12-15 19:04:09,aave
https://intel.arkm.com/explorer/address/0x4a79B0168296c0eF7b8F314973B82aD406a29f1B,0x4a79B0168296c0eF7b8F314973B82aD406a29f1B,ethereum,False,False,Aerodrome Finance,dex,https://aerodrome.finance/,,,195973860.0457351,196167222.8693327,1075903.5169689327,1077130.6276273036,2025-12-15 19:04:09,aave
https://intel.arkm.com/explorer/address/0x95FD84B34362178Ee6De1c138B745170875234e7,0x95FD84B34362178Ee6De1c138B745170875234e7,ethereum,True,False,,,,,,61305400.0,61305400.0,340000.0,340000.0,2025-12-15 19:04:09,aave
https://intel.arkm.com/explorer/address/0x0b8FE2a0DbF47038Da4BB6C6dD5Af1aEf1Ebb1F4,0x0b8FE2a0DbF47038Da4BB6C6dD5Af1aEf1Ebb1F4,ethereum,False,False,,,,,,25080699.09375,0.0,133914.45691356348,0.0,2025-12-15 19:04:09,aave
https://intel.arkm.com/explorer/address/0x9008D19f58AAbD9eD0D60971565AA8510560ab41,0x9008D19f58AAbD9eD0D60971565AA8510560ab41,ethereum,True,False,CoW Protocol,dex-aggregator,https://cow.fi,Settlement,evm,74326103.06377082,74324691.34805678,417644.4745051022,417637.12266208814,2025-12-15 19:04:09,aave
https://intel.arkm.com/explorer/address/0x4A4aaA0155237881FBD5C34BfaE16e985A7B068D,0x4A4aaA0155237881FBD5C34BfaE16e985A7B068D,ethereum,False,False,OKX,cex,https://okx.com,Hot Wallet,evm,27030892.006835938,26373004.27060795,150264.8241789,146422.89102122,2025-12-15 19:04:09,aave
https://intel.arkm.com/explorer/address/0x7915f9373Ae32d1fcAF0CdF17a532a3D8046D759,0x7915f9373Ae32d1fcAF0CdF17a532a3D8046D759,ethereum,False,False,,,,,,22680241.375,0.0,127981.70000000001,0.0,2025-12-15 19:04:09,aave
https://intel.arkm.com/explorer/address/0xfE98f85EAfe3c7BF23af3A7b406aDcc1dB43e36b,0xfE98f85EAfe3c7BF23af3A7b406aDcc1dB43e36b,ethereum,False,False,,,,Kraken Deposit,evm,10307253.815917969,10481503.006744385,58154.75637675,59142.54965571,2025-12-15 19:04:09,aave
https://intel.arkm.com/explorer/address/0x0639556F03714A74a5fEEaF5736a4A64fF70D206,0x0639556F03714A74a5fEEaF5736a4A64fF70D206,ethereum,False,False,Bitget,cex,https://www.bitget.com/,Hot Wallet,evm,0.0,8461643.740018845,0.0,47038.68182907,2025-12-15 19:04:09,aave
https://intel.arkm.com/explorer/address/0xa9C61FE59b5702b1d382fd1d5e495887ff34c21d,0xa9C61FE59b5702b1d382fd1d5e495887ff34c21d,ethereum,False,False,,,,Binance Deposit,evm,18341366.180389404,18361989.592407227,101421.71943240502,101421.71943240502,2025-12-15 19:04:09,aave
https://intel.arkm.com/explorer/address/0xBEE3211ab312a8D065c4FeF0247448e17A8da000,0xBEE3211ab312a8D065c4FeF0247448e17A8da000,ethereum,True,False,,,,Market Maker,evm,11800893.338261712,11735989.998244891,66654.02430402777,66270.58140702745,2025-12-15 19:04:09,aave
https://intel.arkm.com/explorer/address/0x1157A2076b9bB22a85CC2C162f20fAB3898F4101,0x1157A2076b9bB22a85CC2C162f20fAB3898F4101,ethereum,False,False,FalconX,cex,https://falconx.io/,Hot Wallet,evm,0.0,8099813.851431847,0.0,47866.190680910004,2025-12-15 19:04:09,aave
https://intel.arkm.com/explorer/address/0x927C6aaA6aAd7aF5252237af8B85be10B2DE0DBB,0x927C6aaA6aAd7aF5252237af8B85be10B2DE0DBB,ethereum,False,False,,,,,,94829753.76039341,94814534.4782648,521311.5443268288,521113.74117680895,2025-12-15 19:04:09,aave
https://intel.arkm.com/explorer/address/0xEae7380dD4CeF6fbD1144F49E4D1e6964258A4F4,0xEae7380dD4CeF6fbD1144F49E4D1e6964258A4F4,ethereum,False,False,Wintermute,fund,https://www.wintermute.com/,Binance Deposit,evm,82014132.55273438,82022130.88671875,459226.93457857,459226.93457857,2025-12-15 19:04:09,aave
https://intel.arkm.com/explorer/address/0xf3fB9691c4BFF980C0352339fb297c5bF52Dd354,0xf3fB9691c4BFF980C0352339fb297c5bF52Dd354,ethereum,False,False,,,,,,69067028.59790704,69049935.35562134,379312.4549925653,379258.41655042226,2025-12-15 19:04:09,aave
https://intel.arkm.com/explorer/address/0xf8191D98ae98d2f7aBDFB63A9b0b812b93C873AA,0xf8191D98ae98d2f7aBDFB63A9b0b812b93C873AA,ethereum,False,False,Wintermute,fund,https://www.wintermute.com/,Hot Wallet,evm,67135893.87686354,68339548.8868823,375882.3772853025,382912.217959221,2025-12-15 19:04:09,aave
https://intel.arkm.com/explorer/address/0x21a31Ee1afC51d94C2eFcCAa2092aD1028285549,0x21a31Ee1afC51d94C2eFcCAa2092aD1028285549,ethereum,False,False,Binance,cex,https://binance.com,Hot Wallet,evm,59689306.5,58506551.42783302,332879.28127372,326172.21162652003,2025-12-15 19:04:09,aave
https://intel.arkm.com/explorer/address/0x0277331dB7d134B205c5C920395e510dA0dAD2A5,0x0277331dB7d134B205c5C920395e510dA0dAD2A5,ethereum,False,False,,,,,,25097239.90625,0.0,132709.44483023183,0.0,2025-12-15 19:04:09,aave
https://intel.arkm.com/explorer/address/0x33566c9D8BE6Cf0B23795E0d380E112Be9d75836,0x33566c9D8BE6Cf0B23795E0d380E112Be9d75836,ethereum,False,False,Galaxy Digital,fund,https://www.galaxy.com/,OTC,evm,22333248.0,22686597.134521484,127739.0,128016.63238606,2025-12-15 19:04:09,aave
https://intel.arkm.com/explorer/address/0xD3CB110f85Aa369309A7B855f8ED3730E8168a28,0xD3CB110f85Aa369309A7B855f8ED3730E8168a28,ethereum,False,False,Coinbase,cex,https://coinbase.com,Cold Wallet,evm,0.0,10149861.0,0.0,53327.699008394266,2025-12-15 19:04:09,aave
https://intel.arkm.com/explorer/address/0x5aB53EE1d50eeF2C1DD3d5402789cd27bB52c1bB,0x5aB53EE1d50eeF2C1DD3d5402789cd27bB52c1bB,ethereum,True,False,Uniswap,dex,https://uniswap.org,AAVE,evm,84913717.39374906,89985672.52562077,477027.8052669494,508487.848332573,2025-12-15 19:04:09,aave
https://intel.arkm.com/explorer/address/0x91bf7e6FFA4608FA2280F81D2B23a8b8FB70b14B,0x91bf7e6FFA4608FA2280F81D2B23a8b8FB70b14B,ethereum,False,False,,,,,,37856836.54002881,37856836.570327096,206809.3884770057,206809.38847700568,2025-12-15 19:04:09,aave
https://intel.arkm.com/explorer/address/0x91D40E4818F4D4C57b4578d9ECa6AFc92aC8DEbE,0x91D40E4818F4D4C57b4578d9ECa6AFc92aC8DEbE,ethereum,False,False,OKX,cex,https://okx.com,Hot Wallet,evm,22108963.606113132,22134335.173172712,123096.4043370935,123142.6236606,2025-12-15 19:04:09,aave
https://intel.arkm.com/explorer/address/0xC36442b4a4522E871399CD717aBDD847Ab11FE88,0xC36442b4a4522E871399CD717aBDD847Ab11FE88,ethereum,True,False,Uniswap,dex,https://uniswap.org,Nonfungible Position Manager,evm,9565593.100653104,9425969.295085594,55299.597672525364,54502.61480401755,2025-12-15 19:04:09,aave
https://intel.arkm.com/explorer/address/0x1c1b71f80f6E0bC0B070f6E2d6c9E2b5CF65F501,0x1c1b71f80f6E0bC0B070f6E2d6c9E2b5CF65F501,ethereum,False,False,Coinbase,cex,https://coinbase.com,Cold Wallet,evm,0.0,8306882.0,0.0,44327.0125788327,2025-12-15 19:04:09,aave
https://intel.arkm.com/explorer/address/0xE9D05440ED65D6BF7Ccf44d0f1a747B11F31259b,0xE9D05440ED65D6BF7Ccf44d0f1a747B11F31259b,ethereum,False,False,,,,,,15748555.3125,16015239.0,86038.93691625001,86138.93691625001,2025-12-15 19:04:09,aave
https://intel.arkm.com/explorer/address/0x207e1074858A7e78f17002075739eD2745dbaEce,0x207e1074858A7e78f17002075739eD2745dbaEce,ethereum,True,False,0x,dex,https://0x.org,MainnetSettler,evm,9640263.74727154,9640263.688981652,55978.244870228154,55978.244870228154,2025-12-15 19:04:09,aave
https://intel.arkm.com/explorer/address/0x51C81471d65f98AA74e8F7ead948856DC23205af,0x51C81471d65f98AA74e8F7ead948856DC23205af,ethereum,False,False,Coinbase,cex,https://coinbase.com,Cold Wallet,evm,0.0,9528780.0,0.0,50926.087552256155,2025-12-15 19:04:09,aave
https://intel.arkm.com/explorer/address/0xA700b4eB416Be35b2911fd5Dee80678ff64fF6C9,0xA700b4eB416Be35b2911fd5Dee80678ff64fF6C9,ethereum,True,False,Aave,lending-decentralized,https://aave.com,Aave Ethereum AAVE (aEthAAVE),evm,42457278.204863325,19125629.939562794,238740.1001609449,108010.2705323728,2025-12-15 19:04:09,aave
https://intel.arkm.com/explorer/address/0xe401A6A38024d8f5aB88f1B08cad476cCaCA45E8,0xe401A6A38024d8f5aB88f1B08cad476cCaCA45E8,ethereum,False,False,Wintermute,fund,https://www.wintermute.com/,Bybit Deposit,evm,20596792.123046875,20550685.78515625,114651.97914584,114355.97914584,2025-12-15 19:04:09,aave
https://intel.arkm.com/explorer/address/0xA69babEF1cA67A37Ffaf7a485DfFF3382056e78C,0xA69babEF1cA67A37Ffaf7a485DfFF3382056e78C,ethereum,True,False,Symbolic Capital Partners,fund,https://symbolic.partners,MEV Bot,evm,15897057.598159194,15887301.598209381,89865.27481697712,89707.98507377708,2025-12-15 19:04:09,aave
